STARLINK-32245          
1 62133U 24222V   26068.52852592  .00022535  00000+0  82597-3 0  9997
2 62133  42.9989 137.1483 0001484 283.7594  76.3092 15.27577866 72886
KUIPER-00208            
1 67775U 26030M   26068.67231509  .00043852  00000+0  13883-2 0  9994
2 67775  51.8846 219.6993 0015525  57.3146 302.9333 15.32208734  5080
